{
  "type": "FeatureCollection",
  "features": [
    {
      "type": "Feature",
      "properties": {
        "norad_id": 33924,
        "name": "COSMOS 2251 DEB",
        "group": "cosmos-2251-debris",
        "lat": 69.4161211498807,
        "lon": -58.465070667589444,
        "alt_km": 1327.9774951759337,
        "timestamp": "2025-12-24T11:33:00.411621+00:00",
        "meta_object_name": "COSMOS 2251 DEB",
        "meta_object_id": "1993-036ED",
        "meta_epoch": "2025-12-24T02:16:07.347072",
        "meta_mean_motion": 13.5023848,
        "meta_eccentricity": 0.0403817,
        "meta_inclination": 73.9131,
        "meta_ra_of_asc_node": 251.9497,
        "meta_arg_of_pericenter": 285.398,
        "meta_mean_anomaly": 70.2862,
        "meta_ephemeris_type": 0,
        "meta_classification_type": "U",
        "meta_norad_cat_id": 33924,
        "meta_element_set_no": 999,
        "meta_rev_at_epoch": 82892,
        "meta_bstar": 0.00044218,
        "meta_mean_motion_dot": 4.44e-06,
        "meta_mean_motion_ddot": 0,
        "tle_line1": "1 33924U 93036ED  25358.09452948  .00000444  00000+0  44218-3 0  9999",
        "tle_line2": "2 33924  73.9131 251.9497 0403817 285.3980  70.2862 13.50238480828920"
      },
      "geometry": {
        "type": "Point",
        "coordinates": [
          -58.465070667589444,
          69.4161211498807
        ]
      }
    },
    {
      "type": "Feature",
      "properties": {
        "norad_id": 33928,
        "name": "COSMOS 2251 DEB",
        "group": "cosmos-2251-debris",
        "lat": 45.03848855937453,
        "lon": -166.32364759129322,
        "alt_km": 773.3101281010995,
        "timestamp": "2025-12-24T11:33:00.411631+00:00",
        "meta_object_name": "COSMOS 2251 DEB",
        "meta_object_id": "1993-036EH",
        "meta_epoch": "2025-12-24T02:38:41.185824",
        "meta_mean_motion": 14.47424793,
        "meta_eccentricity": 0.0061994,
        "meta_inclination": 73.9253,
        "meta_ra_of_asc_node": 31.1568,
        "meta_arg_of_pericenter": 322.9616,
        "meta_mean_anomaly": 36.7269,
        "meta_ephemeris_type": 0,
        "meta_classification_type": "U",
        "meta_norad_cat_id": 33928,
        "meta_element_set_no": 999,
        "meta_rev_at_epoch": 88809,
        "meta_bstar": 0.00024359,
        "meta_mean_motion_dot": 8.86e-06,
        "meta_mean_motion_ddot": 0,
        "tle_line1": "1 33928U 93036EH  25358.11019891  .00000886  00000+0  24359-3 0  9996",
        "tle_line2": "2 33928  73.9253  31.1568 0061994 322.9616  36.7269 14.47424793888099"
      },
      "geometry": {
        "type": "Point",
        "coordinates": [
          -166.32364759129322,
          45.03848855937453
        ]
      }
    },
    {
      "type": "Feature",
      "properties": {
        "norad_id": 33932,
        "name": "COSMOS 2251 DEB",
        "group": "cosmos-2251-debris",
        "lat": -73.07933794749044,
        "lon": -175.50977587683943,
        "alt_km": 775.2488840644937,
        "timestamp": "2025-12-24T11:33:00.411642+00:00",
        "meta_object_name": "COSMOS 2251 DEB",
        "meta_object_id": "1993-036EM",
        "meta_epoch": "2025-12-24T03:38:55.657248",
        "meta_mean_motion": 14.38789901,
        "meta_eccentricity": 0.00359,
        "meta_inclination": 74.0343,
        "meta_ra_of_asc_node": 294.8688,
        "meta_arg_of_pericenter": 8.2905,
        "meta_mean_anomaly": 351.8834,
        "meta_ephemeris_type": 0,
        "meta_classification_type": "U",
        "meta_norad_cat_id": 33932,
        "meta_element_set_no": 999,
        "meta_rev_at_epoch": 88162,
        "meta_bstar": 0.00044963,
        "meta_mean_motion_dot": 1.366e-05,
        "meta_mean_motion_ddot": 0,
        "tle_line1": "1 33932U 93036EM  25358.15203307  .00001366  00000+0  44963-3 0  9999",
        "tle_line2": "2 33932  74.0343 294.8688 0035900   8.2905 351.8834 14.38789901881626"
      },
      "geometry": {
        "type": "Point",
        "coordinates": [
          -175.50977587683943,
          -73.07933794749044
        ]
      }
    },
    {
      "type": "Feature",
      "properties": {
        "norad_id": 33933,
        "name": "COSMOS 2251 DEB",
        "group": "cosmos-2251-debris",
        "lat": -64.55049480890251,
        "lon": -104.43580482340992,
        "alt_km": 832.443210921474,
        "timestamp": "2025-12-24T11:33:00.411653+00:00",
        "meta_object_name": "COSMOS 2251 DEB",
        "meta_object_id": "1993-036EN",
        "meta_epoch": "2025-12-23T19:18:54.872064",
        "meta_mean_motion": 14.33504975,
        "meta_eccentricity": 0.00709863,
        "meta_inclination": 74.0889,
        "meta_ra_of_asc_node": 39.9697,
        "meta_arg_of_pericenter": 45.0777,
        "meta_mean_anomaly": 315.6104,
        "meta_ephemeris_type": 0,
        "meta_classification_type": "U",
        "meta_norad_cat_id": 33933,
        "meta_element_set_no": 999,
        "meta_rev_at_epoch": 87943,
        "meta_bstar": 0.00024260297,
        "meta_mean_motion_dot": 6.65e-06,
        "meta_mean_motion_ddot": 0,
        "tle_line1": "1 33933U 93036EN  25357.80480176  .00000665  00000+0  24260-3 0  9991",
        "tle_line2": "2 33933  74.0889  39.9697 0070986  45.0777 315.6104 14.33504975879434"
      },
      "geometry": {
        "type": "Point",
        "coordinates": [
          -104.43580482340992,
          -64.55049480890251
        ]
      }
    },
    {
      "type": "Feature",
      "properties": {
        "norad_id": 33934,
        "name": "COSMOS 2251 DEB",
        "group": "cosmos-2251-debris",
        "lat": 9.90288313564593,
        "lon": 81.0646040570342,
        "alt_km": 707.5535561558854,
        "timestamp": "2025-12-24T11:33:00.411663+00:00",
        "meta_object_name": "COSMOS 2251 DEB",
        "meta_object_id": "1993-036EP",
        "meta_epoch": "2025-12-23T22:20:22.395264",
        "meta_mean_motion": 14.5919517,
        "meta_eccentricity": 0.0015183,
        "meta_inclination": 74.0381,
        "meta_ra_of_asc_node": 79.2489,
        "meta_arg_of_pericenter": 202.8921,
        "meta_mean_anomaly": 157.1569,
        "meta_ephemeris_type": 0,
        "meta_classification_type": "U",
        "meta_norad_cat_id": 33934,
        "meta_element_set_no": 999,
        "meta_rev_at_epoch": 88902,
        "meta_bstar": 0.00087561,
        "meta_mean_motion_dot": 4.108e-05,
        "meta_mean_motion_ddot": 0,
        "tle_line1": "1 33934U 93036EP  25357.93081476  .00004108  00000+0  87561-3 0  9995",
        "tle_line2": "2 33934  74.0381  79.2489 0015183 202.8921 157.1569 14.59195170889021"
      },
      "geometry": {
        "type": "Point",
        "coordinates": [
          81.0646040570342,
          9.90288313564593
        ]
      }
    },
    {
      "type": "Feature",
      "properties": {
        "norad_id": 33936,
        "name": "COSMOS 2251 DEB",
        "group": "cosmos-2251-debris",
        "lat": -12.610509213881885,
        "lon": 11.366229982802412,
        "alt_km": 715.1460581794636,
        "timestamp": "2025-12-24T11:33:00.411673+00:00",
        "meta_object_name": "COSMOS 2251 DEB",
        "meta_object_id": "1993-036ER",
        "meta_epoch": "2025-12-23T19:10:08.490432",
        "meta_mean_motion": 14.60333945,
        "meta_eccentricity": 0.00267842,
        "meta_inclination": 74.0179,
        "meta_ra_of_asc_node": 16.3464,
        "meta_arg_of_pericenter": 169.1135,
        "meta_mean_anomaly": 191.0617,
        "meta_ephemeris_type": 0,
        "meta_classification_type": "U",
        "meta_norad_cat_id": 33936,
        "meta_element_set_no": 999,
        "meta_rev_at_epoch": 89051,
        "meta_bstar": 0.00060550854,
        "meta_mean_motion_dot": 2.913e-05,
        "meta_mean_motion_ddot": 0,
        "tle_line1": "1 33936U 93036ER  25357.79870938  .00002913  00000+0  60551-3 0  9992",
        "tle_line2": "2 33936  74.0179  16.3464 0026784 169.1135 191.0617 14.60333945890517"
      },
      "geometry": {
        "type": "Point",
        "coordinates": [
          11.366229982802412,
          -12.610509213881885
        ]
      }
    },
    {
      "type": "Feature",
      "properties": {
        "norad_id": 33938,
        "name": "COSMOS 2251 DEB",
        "group": "cosmos-2251-debris",
        "lat": -8.900904157616754,
        "lon": -177.3139433319892,
        "alt_km": 738.5674528771506,
        "timestamp": "2025-12-24T11:33:00.411684+00:00",
        "meta_object_name": "COSMOS 2251 DEB",
        "meta_object_id": "1993-036ET",
        "meta_epoch": "2025-12-24T00:44:03.903072",
        "meta_mean_motion": 14.46826184,
        "meta_eccentricity": 0.0016802,
        "meta_inclination": 74.0437,
        "meta_ra_of_asc_node": 186.0954,
        "meta_arg_of_pericenter": 267.3286,
        "meta_mean_anomaly": 257.0228,
        "meta_ephemeris_type": 0,
        "meta_classification_type": "U",
        "meta_norad_cat_id": 33938,
        "meta_element_set_no": 999,
        "meta_rev_at_epoch": 88563,
        "meta_bstar": 0.00040709,
        "meta_mean_motion_dot": 1.451e-05,
        "meta_mean_motion_ddot": 0,
        "tle_line1": "1 33938U 93036ET  25358.03060073  .00001451  00000+0  40709-3 0  9992",
        "tle_line2": "2 33938  74.0437 186.0954 0016802 267.3286 257.0228 14.46826184885637"
      },
      "geometry": {
        "type": "Point",
        "coordinates": [
          -177.3139433319892,
          -8.900904157616754
        ]
      }
    }
  ]
}